     2.10           G: GLONASS NAV DATA                     RINEX VERSION / TYPE
teqc  2015Jun23                         20210911 01:26:19UTCPGM / RUN BY / DATE
Linux 2.4.21-27.ELsmp|Opteron|gcc -static|Linux x86_64|=+   COMMENT
  2021     8    18   -9.313225746155D-10                    CORR TO SYSTEM TIME
                                                            END OF HEADER
22 21  8 19  7 15  0.0-1.286538317800D-04-9.094947017729D-13 2.520000000000D+04
   -7.301892089844D+03-3.276643753052D-01 2.793967723846D-09 0.000000000000D+00
    2.289383398438D+04 1.167631149292D+00 0.000000000000D+00-3.000000000000D+00
    8.665652343750D+03-3.345166206360D+00 0.000000000000D+00 0.000000000000D+00
 1 21  8 19  7 15  0.0 8.406117558479D-05 0.000000000000D+00 2.520000000000D+04
    1.493179101562D+04 1.681241989136D-01 2.793967723846D-09 0.000000000000D+00
    2.066351806641D+04-1.413536071777D-02 1.862645149231D-09 1.000000000000D+00
   -6.242709960938D+02 3.562100410461D+00 2.793967723846D-09 0.000000000000D+00
 7 21  8 19  7 15  0.0-4.159845411777D-05 0.000000000000D+00 2.520000000000D+04
   -6.357108886719D+03-1.699693679810D+00 2.793967723846D-09 0.000000000000D+00
    9.851967773438D+03-2.589089393616D+00 9.313225746155D-10 5.000000000000D+00
    2.269351318359D+04 6.446695327759D-01-9.313225746155D-10 0.000000000000D+00
 8 21  8 19  7 15  0.0-6.045214831829D-05 0.000000000000D+00 2.520000000000D+04
    5.755330078125D+03-9.550743103027D-01 3.725290298462D-09 0.000000000000D+00
    2.053958837891D+04-1.664238929749D+00 1.862645149231D-09 6.000000000000D+00
    1.405832617188D+04 2.830881118774D+00 9.313225746155D-10 0.000000000000D+00
10 21  8 19  7 15  0.0-7.410906255245D-05-0.000000000000D+00 2.520000000000D+04
   -2.018760058594D+04-1.805051803589D+00-9.313225746155D-10 0.000000000000D+00
    8.070462890625D+03 2.735042572021D-01-3.725290298462D-09-7.000000000000D+00
   -1.328556201172D+04 2.914885520935D+00-0.000000000000D+00 0.000000000000D+00
21 21  8 19  7 15  0.0-2.326192334294D-04-2.728484105319D-12 2.520000000000D+04
   -1.390551660156D+04 6.873874664307D-01 9.313225746155D-10 0.000000000000D+00
    1.981342773438D+04-8.825645446777D-01-1.862645149231D-09 4.000000000000D+00
   -7.996495605469D+03-3.387508392334D+00 9.313225746155D-10 0.000000000000D+00
23 21  8 19  7 15  0.0-1.186877489090D-05-0.000000000000D+00 2.691000000000D+04
    6.326120117188D+03-1.355535507202D+00 3.725290298462D-09 0.000000000000D+00
    9.870029296875D+03 2.798461914062D+00 2.793967723846D-09 3.000000000000D+00
    2.263986816406D+04-8.413333892822D-01-0.000000000000D+00 0.000000000000D+00
22 21  8 19  7 45  0.0-1.286566257477D-04-9.094947017729D-13 2.700000000000D+04
   -7.449786132812D+03 1.302280426025D-01 2.793967723846D-09 0.000000000000D+00
    2.432580810547D+04 3.955030441284D-01-9.313225746155D-10-3.000000000000D+00
    2.388281250000D+03-3.584574699402D+00 0.000000000000D+00 0.000000000000D+00
 1 21  8 19  7 45  0.0 8.406210690737D-05 0.000000000000D+00 2.700000000000D+04
    1.472238037109D+04-4.285125732422D-01 3.725290298462D-09 0.000000000000D+00
    2.001886425781D+04-6.723299026489D-01 1.862645149231D-09 1.000000000000D+00
    5.728752441406D+03 3.450933456421D+00 1.862645149231D-09 0.000000000000D+00
 8 21  8 19  7 45  0.0-6.045214831829D-05 0.000000000000D+00 2.700000000000D+04
    3.460883300781D+03-1.594562530518D+00 3.725290298462D-09 0.000000000000D+00
    1.723339208984D+04-1.962656974792D+00 9.313225746155D-10 6.000000000000D+00
    1.854753271484D+04 2.125003814697D+00-0.000000000000D+00 0.000000000000D+00
10 21  8 19  7 45  0.0-7.411092519760D-05-0.000000000000D+00 2.700000000000D+04
   -2.271690673828D+04-9.871253967285D-01-9.313225746155D-10 0.000000000000D+00
    8.675720214844D+03 3.596477508545D-01-3.725290298462D-09-7.000000000000D+00
   -7.591312500000D+03 3.370864868164D+00-9.313225746155D-10 0.000000000000D+00
21 21  8 19  7 45  0.0-2.326248213649D-04-2.728484105319D-12 2.700000000000D+04
   -1.253449414062D+04 7.916402816772D-01-0.000000000000D+00 0.000000000000D+00
    1.746737988281D+04-1.715445518494D+00-2.793967723846D-09 4.000000000000D+00
   -1.370540917969D+04-2.914509773254D+00 9.313225746155D-10 0.000000000000D+00
23 21  8 19  7 45  0.0-1.186970621347D-05-0.000000000000D+00 2.700000000000D+04
    4.373361816406D+03-8.090085983276D-01 3.725290298462D-09 0.000000000000D+00
    1.483494824219D+04 2.666167259216D+00 9.313225746155D-10 3.000000000000D+00
    2.026866601562D+04-1.776209831238D+00 0.000000000000D+00 0.000000000000D+00
22 21  8 19  8 15  0.0-1.286584883928D-04-9.094947017729D-13 2.880000000000D+04
   -6.970119140625D+03 3.611354827881D-01 9.313225746155D-10 0.000000000000D+00
    2.424883154297D+04-4.906444549561D-01-1.862645149231D-09-3.000000000000D+00
   -4.072879882812D+03-3.548129081726D+00 9.313225746155D-10 0.000000000000D+00
 1 21  8 19  8 15  0.0 8.406303822994D-05 0.000000000000D+00 2.880000000000D+04
    1.331697558594D+04-1.144615173340D+00 4.656612873077D-09 0.000000000000D+00
    1.837240429688D+04-1.116356849670D+00 9.313225746155D-10 1.000000000000D+00
    1.163844091797D+04 3.072718620300D+00 9.313225746155D-10 0.000000000000D+00
 8 21  8 19  8 15  0.0-6.044935435057D-05 0.000000000000D+00 2.880000000000D+04
    4.759814453125D+01-2.179717063904D+00 3.725290298462D-09 0.000000000000D+00
    1.364315966797D+04-1.980721473694D+00 0.000000000000D+00 6.000000000000D+00
    2.161035302734D+04 1.256227493286D+00-0.000000000000D+00 0.000000000000D+00
10 21  8 19  8 15  0.0-7.411278784275D-05-0.000000000000D+00 2.880000000000D+04
   -2.371052636719D+04-1.181993484497D-01-1.862645149231D-09 0.000000000000D+00
    9.217410644531D+03 2.010126113892D-01-2.793967723846D-09-7.000000000000D+00
   -1.307782714844D+03 3.565315246582D+00-2.793967723846D-09 0.000000000000D+00
21 21  8 19  8 15  0.0-2.326304093003D-04-2.728484105319D-12 2.880000000000D+04
   -1.120875000000D+04 6.421871185303D-01-1.862645149231D-09 0.000000000000D+00
    1.370447119141D+04-2.437749862671D+00-2.793967723846D-09 4.000000000000D+00
   -1.835318701172D+04-2.216191291809D+00 9.313225746155D-10 0.000000000000D+00
23 21  8 19  8 15  0.0-1.187156885862D-05-0.000000000000D+00 2.880000000000D+04
    3.398062988281D+03-2.882604598999D-01 3.725290298462D-09 0.000000000000D+00
    1.928559033203D+04 2.231080055237D+00 0.000000000000D+00 3.000000000000D+00
    1.632824072266D+04-2.573565483093D+00 0.000000000000D+00 0.000000000000D+00
22 21  8 19  8 45  0.0-1.286612823606D-04-9.094947017729D-13 3.060000000000D+04
   -6.303915527344D+03 3.365879058838D-01-0.000000000000D+00 0.000000000000D+00
    2.256104687500D+04-1.374153137207D+00-1.862645149231D-09-3.000000000000D+00
   -1.022089892578D+04-3.238903999329D+00 9.313225746155D-10 0.000000000000D+00
 1 21  8 19  8 45  0.0 8.406396955252D-05 0.000000000000D+00 3.060000000000D+04
    1.059351416016D+04-1.874244689941D+00 4.656612873077D-09 0.000000000000D+00
    1.615613134766D+04-1.301648139954D+00 0.000000000000D+00 1.000000000000D+00
    1.664755566406D+04 2.456819534302D+00 0.000000000000D+00 0.000000000000D+00
10 21  8 19  8 45  0.0-7.411371916533D-05-0.000000000000D+00 3.060000000000D+04
   -2.318191259766D+04 6.853466033936D-01-9.313225746155D-10 0.000000000000D+00
    9.258633789062D+03-1.907043457031D-01-1.862645149231D-09-7.000000000000D+00
    5.077284179688D+03 3.482936859131D+00-2.793967723846D-09 0.000000000000D+00
21 21  8 19  8 45  0.0-2.326359972358D-04-2.728484105319D-12 3.060000000000D+04
   -1.034436523438D+04 2.910318374634D-01-3.725290298462D-09 0.000000000000D+00
    8.820767089844D+03-2.945651054382D+00-1.862645149231D-09 4.000000000000D+00
   -2.158085498047D+04-1.346908569336D+00 0.000000000000D+00 0.000000000000D+00
23 21  8 19  8 45  0.0-1.187343150377D-05-0.000000000000D+00 3.060000000000D+04
    3.256436523438D+03 1.013851165771D-01 3.725290298462D-09 0.000000000000D+00
    2.271267626953D+04 1.540419578552D+00-0.000000000000D+00 3.000000000000D+00
    1.112372705078D+04-3.171615600586D+00 0.000000000000D+00 0.000000000000D+00
12 21  8 19  8 45  0.0 2.548741176724D-04 2.728484105319D-12 3.087000000000D+04
    9.205512695312D+02-2.762931823730D+00-9.313225746155D-10 0.000000000000D+00
    1.164583984375D+04 1.425928115845D+00-9.313225746155D-10-1.000000000000D+00
   -2.264057373047D+04 6.215620040894D-01 1.862645149231D-09 0.000000000000D+00
24 21  8 19  8 45  0.0 5.509983748198D-05 1.818989403546D-12 3.186000000000D+04
    8.870859863281D+03-1.497468948364D-01 4.656612873077D-09 0.000000000000D+00
    1.168737060547D+04 2.853717803955D+00 0.000000000000D+00 2.000000000000D+00
    2.086992968750D+04-1.537183761597D+00 0.000000000000D+00 0.000000000000D+00
22 21  8 19  9 15  0.0-1.286640763283D-04-9.094947017729D-13 3.240000000000D+04
   -5.901843750000D+03 7.443714141846D-02-1.862645149231D-09 0.000000000000D+00
    1.937452978516D+04-2.137175559998D+00-1.862645149231D-09-3.000000000000D+00
   -1.558312109375D+04-2.680623054504D+00 9.313225746155D-10 0.000000000000D+00
 1 21  8 19  9 15  0.0 8.406490087509D-05 0.000000000000D+00 3.240000000000D+04
    6.629361328125D+03-2.504834175110D+00 3.725290298462D-09 0.000000000000D+00
    1.384259033203D+04-1.228234291077D+00-0.000000000000D+00 1.000000000000D+00
    2.036875244141D+04 1.651018142700D+00-0.000000000000D+00 0.000000000000D+00
10 21  8 19  9 15  0.0-7.411558181047D-05-0.000000000000D+00 3.240000000000D+04
   -2.134528710938D+04 1.319882392883D+00-9.313225746155D-10 0.000000000000D+00
    8.423305664062D+03-7.605381011963D-01-9.313225746155D-10-7.000000000000D+00
    1.106815625000D+04 3.130217552185D+00-3.725290298462D-09 0.000000000000D+00
12 21  8 19  9 15  0.0 2.548787742853D-04 2.728484105319D-12 3.240000000000D+04
   -3.672878906250D+03-2.304850578308D+00-1.862645149231D-09 0.000000000000D+00
    1.445183837891D+04 1.655899047852D+00-1.862645149231D-09-1.000000000000D+00
   -2.065796386719D+04 1.566984176636D+00 9.313225746155D-10 0.000000000000D+00
